id,name,lat,long,street,city,county,state,zip
80,MIT Stata Center at Vassar St / Main St,42.3621312344991,-71.09115600585936,Vassar St,Cambridge,Middlesex County,MA,02139
117,Binney St / Sixth St,42.36616223459919,-71.08688293667001,Binney St,Cambridge,Middlesex County,MA,02142
68,Central Square at Mass Ave / Essex St,42.36507,-71.1031,Massachusetts Ave,Cambridge,Middlesex County,MA,02139
89,Harvard Law School at Mass Ave / Jarvis St,42.379011,-71.119945,Massachusetts Ave,Cambridge,Middlesex County,MA,02138
73,Harvard Square at Brattle St / Eliot St,42.373231,-71.120886,Brattle St,Cambridge,Middlesex County,MA,02138
104,Harvard University Radcliffe Quadrangle at Shepard St / Garden St,42.380287,-71.125107,Garden St,Cambridge,Middlesex County,MA,02138
4,Tremont St at E Berkeley St,42.345392,-71.069616,Tremont St,Boston,Suffolk County,MA,02116
91,One Kendall Square at Hampshire St / Portland St,42.366277,-71.09169,One Kendall Sq,Cambridge,Middlesex County,MA,02141
36,Copley Square - Dartmouth St at Boylston St,42.34993463611888,-71.07738554477692,Boylston St,Boston,Suffolk County,MA,02116
121,W Broadway at Dorchester St,42.335693,-71.045859,W Broadway,South Boston,Suffolk County,MA,02127
39,Washington St at Rutland St,42.338514601786,-71.07404083013535,Washington St,Boston,Suffolk County,MA,02118
95,Cambridge St - at Columbia St / Webster Ave,42.372969,-71.094445,Cambridge St,Cambridge,Middlesex County,MA,02139
342,Boylston St at Jersey St,42.34465062887831,-71.09732501226972,Boylston St,Boston,Suffolk County,MA,02215
358,Medford St at Charlestown BCYF,42.380429474494896,-71.06055721676967,Polk St,Charlestown,Suffolk County,MA,02129
66,Allston Green District - Griggs St at Commonwealth Ave,42.34922469338298,-71.13275302578586,Commonwealth Ave,Allston,Suffolk County,MA,02134
181,Huron Ave At Vassal Lane,42.381650612901176,-71.13426981498378,Appleton St,Cambridge,Middlesex County,MA,02138
6,Cambridge St at Joy St,42.36121165307985,-71.06530619789737,Cambridge St,Boston,Suffolk County,MA,02114
90,Lechmere Station at Cambridge St / First St,42.370677,-71.076529,MA 28,Cambridge,Middlesex County,MA,02141
206,Government Center - Cambridge St at Court St,42.359802515995526,-71.05960782626425,Cambridge St,Boston,Suffolk County,MA,02114
177,University Park,42.36264779118595,-71.10006093978882,Sidney St,Cambridge,Middlesex County,MA,02139
115,Porter Square Station,42.387995,-71.119084,Massachusetts Ave,Cambridge,Middlesex County,MA,02140
218,Watermark Seaport - Boston Wharf Rd at Seaport Blvd,42.351586001198456,-71.04569256305693,Seaport Blvd,Boston,Suffolk County,MA,02210
178,MIT Pacific St at Purrington St,42.35957320109044,-71.10129475593567,Waverly St,Cambridge,Middlesex County,MA,02139
87,Harvard University Housing - 115 Putnam Ave at Peabody Terrace,42.366621,-71.114214,Putnam Ave,Cambridge,Middlesex County,MA,02139
133,Green Street T Stop - Green St at Amory St,42.310579,-71.107341,Green St,Jamaica Plain,Suffolk County,MA,02130
33,Kenmore Square,42.348706,-71.097009,Commonwealth Ave,Boston,Suffolk County,MA,02215
58,Mugar Way at Beacon St,42.35553628489709,-71.07286870479584,Beacon St,Boston,Suffolk County,MA,02108
74,Harvard Square at Mass Ave/ Dunster,42.373268,-71.118579,Massachusetts Ave,Cambridge,Middlesex County,MA,02138
51,Washington St at Lenox St,42.3350989929096,-71.07903778553009,Washington St,Boston,Suffolk County,MA,02118
363,Harrison Ave at Mullins Way,42.34521562115022,-71.0638403149278,Harrison Ave,Boston,Suffolk County,MA,02118
23,Boston City Hall - 28 State St,42.35892,-71.057629,Washington St,Boston,Suffolk County,MA,02109
157,Seaport Blvd at Sleeper St,42.35317809186252,-71.04817356923377,Seaport Blvd,Boston,Suffolk County,MA,02210
27,Roxbury Crossing T Stop - Columbus Ave at Tremont St,42.331184,-71.095171,Columbus Ave,Roxbury Crossing,Suffolk County,MA,02120
3,Colleges of the Fenway - Fenway at Avenue Louis Pasteur,42.34011512249236,-71.10061883926392,Ave Louis Pasteur,Boston,Suffolk County,MA,02115
355,Bennington St at Constitution Beach,42.385223935870535,-71.01063068965232,Bennington St,East Boston,Suffolk County,MA,02128
71,Conway Park - Somerville Avenue,42.383405,-71.107593,Somerville Ave,Somerville,Middlesex County,MA,02143
72,One Broadway / Kendall Sq at Main St / 3rd St,42.36224178650923,-71.0831107199192,Main St,Cambridge,Middlesex County,MA,02142
93,JFK/UMass T Stop,42.32033973515723,-71.05118036270142,William T Morrissey Blvd,Dorchester,Suffolk County,MA,02125
365,Harrison Ave at Bennet St,42.34942609892521,-71.06209959843909,Bennet St,Boston,Suffolk County,MA,02111
88,Inman Square at Vellucci Plaza / Hampshire St,42.374035,-71.101427,Cambridge St,Cambridge,Middlesex County,MA,02139
96,Cambridge Main Library at Broadway / Trowbridge St,42.373379,-71.111075,Broadway,Cambridge,Middlesex County,MA,02138
145,Rindge Avenue - O'Neill Library,42.392766,-71.129042,Yerxa Rd,Cambridge,Middlesex County,MA,02140
59,Chinatown Gate Plaza,42.351356,-71.059367,Edinboro St,Boston,Suffolk County,MA,02111
86,Brookline Village - Pearl Street at MBTA,42.332799,-71.116205,Station St,Brookline,Norfolk County,MA,02445
185,Third at Binney,42.36544486137399,-71.08277142047882,Binney St,Cambridge,Middlesex County,MA,02142
8,Union Square - Brighton Ave at Cambridge St,42.353334,-71.137313,Cambridge St,Allston,Suffolk County,MA,02134
116,359 Broadway - Broadway at Fayette Street,42.370803,-71.104412,Broadway,Cambridge,Middlesex County,MA,02139
222,Troy Boston,42.343749,-71.062256,Albany St,Boston,Suffolk County,MA,02118
356,Charlestown Navy Yard,42.374124549426526,-71.05481199938367,Baxter Rd,Charlestown,Suffolk County,MA,02129
370,Dartmouth St at Newbury St,42.35096144421219,-71.07782810926437,Dartmouth St,Boston,Suffolk County,MA,02116
345,Park Plaza at Charles St,42.35182806892068,-71.06781138111728,Columbus Ave,Boston,Suffolk County,MA,02116
372,Boylston St at Exeter St,42.349589423682445,-71.0794677917329,Boylston St,Boston,Suffolk County,MA,02116
318,Ames St at Broadway,42.3636929,-71.0875672,Broadway,Cambridge,Middlesex County,MA,02142
41,Packard's Corner - Commonwealth Ave at Brighton Ave,42.352261,-71.123831,Commonwealth Ave,Boston,Suffolk County,MA,02215
364,Tremont St at Northampton St,42.33889559644165,-71.08149975611013,Tremont St,Boston,Suffolk County,MA,02118
174,Washington St at Brock St,42.3489528466951,-71.16031676530838,Washington St,Brighton,Suffolk County,MA,02135
361,Deerfield St at Commonwealth Ave,42.34924376955301,-71.09728209692548,Deerfield St,Boston,Suffolk County,MA,02215
105,Lower Cambridgeport at Magazine St / Riverside Rd,42.357218503176526,-71.1138716340065,Memorial Dr,Cambridge,Middlesex County,MA,02139
40,Lewis Wharf at Atlantic Ave,42.363871,-71.050877,Lewis Wharf,Boston,Suffolk County,MA,02110
179,MIT Vassar St,42.35560121327927,-71.10394477844238,Vassar St,Cambridge,Middlesex County,MA,02139
25,South End Library - Tremont St at W Newton St,42.341332,-71.076847,Tremont St,Boston,Suffolk County,MA,02118
107,Ames St at Main St,42.3625,-71.08822,Main St,Cambridge,Middlesex County,MA,02142
190,Nashua Street at Red Auerbach Way,42.365673,-71.064263,Lomasney Way,Boston,Suffolk County,MA,02114
143,EF - North Point Park,42.369885,-71.069957,Education St,Cambridge,Middlesex County,MA,02141
150,State Street at Channel Center,42.344137,-71.052608,A St,Boston,Suffolk County,MA,02210
139,Dana Park,42.36178043960605,-71.10809952020645,Magazine St,Cambridge,Middlesex County,MA,02139
65,Boston Convention and Exhibition Center - Summer St at West Side Dr,42.347763454147454,-71.0453599691391,Massport Haul Rd,Boston,Suffolk County,MA,02210
119,South Boston Library - 646 E Broadway,42.335741,-71.03877,E Broadway,South Boston,Suffolk County,MA,02127
69,Coolidge Corner - Beacon St at Centre St,42.341598,-71.123338,Beacon St,Brookline,Norfolk County,MA,02446
63,Dorchester Ave at Gillette Park,42.34404051001636,-71.05737626552582,Foundry St,Boston,Suffolk County,MA,02127
332,Harvard Ave at Brainerd Rd,42.34953016890375,-71.13022770741735,Harvard Ave,Allston,Suffolk County,MA,02134
22,South Station - 700 Atlantic Ave,42.352175,-71.055547,Atlantic Ave,Boston,Suffolk County,MA,02210
197,MLK Blvd at Washington St,42.32143814183195,-71.09126061201096,Martin Luther King Jr Blvd,Boston,Suffolk County,MA,02119
319,84 Cambridgepark Dr,42.3936,-71.143941,Cambridgepark Dr,Cambridge,Middlesex County,MA,02140
21,Prudential Center - Belvedere St,42.34652003998412,-71.08065776545118,Huntington Ave,Boston,Suffolk County,MA,02199
110,Harvard University Gund Hall at Quincy St / Kirkland S,42.376369,-71.114025,Quincy St,Cambridge,Middlesex County,MA,02138
43,Rowes Wharf at Atlantic Ave,42.357143,-71.050699,Atlantic Ave,Boston,Suffolk County,MA,02110
67,MIT at Mass Ave / Amherst St,42.3581,-71.093198,Massachusetts Ave,Cambridge,Middlesex County,MA,02139
175,Brighton Center - Washington St at Cambridge St,42.34894857235593,-71.15027189254761,Washington St,Brighton,Suffolk County,MA,02135
376,Honan Library,42.36027370454934,-71.12852452327388,N Harvard St,Allston,Suffolk County,MA,02134
195,Child St at North St,42.37150494100319,-71.07249312120985,Child St,Cambridge,Middlesex County,MA,02141
338,Commonwealth Ave at Kelton St,42.348358628170445,-71.13997217276847,Commonwealth Ave,Brighton,Suffolk County,MA,02135
296,Farragut Rd at E. 6th St,42.3334,-71.02495,Farragut Rd,South Boston,Suffolk County,MA,02127
189,Kendall T,42.3624278429124,-71.08495473861694,Broadway,Cambridge,Middlesex County,MA,02142
10,B.U. Central - 725 Comm. Ave.,42.350406,-71.108279,Commonwealth Ave,Boston,Suffolk County,MA,02215
81,Chinatown T Stop,42.352409,-71.062679,Washington St,Boston,Suffolk County,MA,02111
188,Foss Park,42.39108438146733,-71.09039425849915,Broadway,Somerville,Middlesex County,MA,02145
20,Aquarium T Stop - 200 Atlantic Ave,42.35991176110118,-71.0514298081398,State St,Boston,Suffolk County,MA,02109
221,Verizon Innovation Hub 10 Ware Street,42.37250864997261,-71.11305356025696,Ware St,Cambridge,Middlesex County,MA,02138
12,Ruggles T Stop - Columbus Ave at Melnea Cass Blvd,42.33624444796878,-71.08798563480377,Columbus Ave,Roxbury Crossing,Suffolk County,MA,02120
219,Boston East - 126 Border St,42.373312125824704,-71.0410200806291,Liverpool St,East Boston,Suffolk County,MA,02128
182,Museum of Science,42.36769018024484,-71.07116281986237,Science Park,Cambridge,Middlesex County,MA,02141
180,Mt Auburn,42.37478628706384,-71.13320231437683,Mt Auburn St,Cambridge,Middlesex County,MA,02138
118,Linear Park - Mass. Ave. at Cameron Ave. ,42.397828,-71.130516,Massachusetts Ave,Cambridge,Middlesex County,MA,02140
352,Ring Rd,42.348278385426255,-71.08044855314802,Boylston St,Boston,Suffolk County,MA,02199
42,Boylston St at Arlington St,42.35256693391622,-71.06770543386118,Boylston St,Boston,Suffolk County,MA,02116
70,Harvard Kennedy School at Bennett St / Eliot St,42.3722168027866,-71.12188071012497,Eliot St,Cambridge,Middlesex County,MA,02138
225,Cambridge Dept. of Public Works -147 Hampshire St.,42.37119727759414,-71.09759867191315,Hampshire St,Cambridge,Middlesex County,MA,02139
228,One Memorial Drive,42.361619320766856,-71.0804355052096,Memorial Dr,Cambridge,Middlesex County,MA,02142
37,New Balance - 20 Guest St,42.35732921867706,-71.14673539996147,Guest St,Brighton,Suffolk County,MA,02135
16,Back Bay T Stop - Dartmouth St at Stuart St,42.34807412317439,-71.07657015323639,I-90,Boston,Suffolk County,MA,02116
232,Four Corners - 157 Washington St,42.30412792739016,-71.07929527759552,Washington St,Dorchester,Suffolk County,MA,02121
344,Commonwealth Ave at Chiswick Rd,42.34024644768889,-71.15168806174552,Commonwealth Ave,Brighton,Suffolk County,MA,02135
131,Jackson Square T Stop,42.32293117195949,-71.10014140605927,Centre St,Roxbury,Suffolk County,MA,02119
49,Stuart St at Charles St,42.351146,-71.066289,Stuart St,Boston,Suffolk County,MA,02116
126,Egleston Square - Atherton St at Washington St,42.315692,-71.098634,Washington St,Roxbury,Suffolk County,MA,02119
84,CambridgeSide Galleria - CambridgeSide PL at Land Blvd,42.366981,-71.076472,Cambridgeside Pl,Cambridge,Middlesex County,MA,02141
377,Perry Park,42.37927324600841,-71.10341902831351,Washington St,Somerville,Middlesex County,MA,02143
77,Somerville City Hall,42.386844,-71.09812,Highland Ave,Somerville,Middlesex County,MA,02143
193,Brookline Town Hall,42.33376472623494,-71.12046446660315,Washington St,Brookline,Norfolk County,MA,02445
234,Broadway at Central St,42.39517150121575,-71.09850591982195,Broadway,Somerville,Middlesex County,MA,02145
160,Wentworth Institute of Technology - Huntington Ave at Vancouver St,42.33758601097239,-71.09627097845076,Huntington Ave,Boston,Suffolk County,MA,02115
102,Powder House Circle - Nathan Tufts Park,42.400877,-71.116772,Broadway,Somerville,Middlesex County,MA,02144
85,Spaulding Rehabilitation Hospital - Charlestown Navy Yard,42.378338,-71.048927,1st Ave,Charlestown,Suffolk County,MA,02129
217,Orient Heights T Stop - Bennington St at Saratoga St,42.386781,-71.006098,Bennington St,East Boston,Suffolk County,MA,02128
258,Gallivan Blvd at Adams St,42.28297567840305,-71.05466698296368,Gallivan Blvd,Dorchester Center,Suffolk County,MA,02124
82,Beacon St at Tappan St,42.33826680058037,-71.13894682028331,Beacon St,Brookline,Norfolk County,MA,02445
146,Murphy Skating Rink - 1880 Day Blvd,42.336448,-71.023739,William J Day Blvd,South Boston,Suffolk County,MA,02127
282,Stony Brook T Stop,42.316966,-71.104374,Boylston St,Jamaica Plain,Suffolk County,MA,02130
46,Christian Science Plaza - Massachusetts Ave at Westland Ave,42.3436658245146,-71.08582377433777,Massachusetts Ave,Boston,Suffolk County,MA,02115
331,Huntington Ave at Mass Art,42.336585554561154,-71.0988699646623,Huntington Ave,Boston,Suffolk County,MA,02115
11,Longwood Ave at Binney St,42.338629,-71.1065,Longwood Ave,Boston,Suffolk County,MA,02115
97,Harvard University River Houses at DeWolfe St / Cowperthwaite St,42.36919031768079,-71.11714124679565,Dewolfe St,Cambridge,Middlesex County,MA,02138
76,Central Sq Post Office / Cambridge City Hall at Mass Ave / Pleasant St,42.366426,-71.105495,Massachusetts Ave,Cambridge,Middlesex County,MA,02139
359,One Brigham Circle,42.33392270136997,-71.10446508982932,Tremont St,Roxbury Crossing,Suffolk County,MA,02120
142,Alewife Station at Russell Field,42.396105,-71.139459,Rindge Ave,Cambridge,Middlesex County,MA,02140
30,Brigham Circle - Francis St at Huntington Ave,42.33462893055976,-71.10407917767589,Huntington Ave,Boston,Suffolk County,MA,02115
226,Commonwealth Ave At Babcock St,42.35154734791375,-71.12126246094704,Commonwealth Ave,Boston,Norfolk County,MA,02215
108,Harvard University / SEAS Cruft-Pierce Halls at 29 Oxford St,42.377945,-71.116865,Oxford St,Cambridge,Middlesex County,MA,02138
152,Ink Block - Harrison Ave at Herald St,42.345901,-71.063187,Harrison Ave,Boston,Suffolk County,MA,02118
94,Main St at Austin St,42.375603,-71.064608,Main St,Charlestown,Suffolk County,MA,02129
141,Kendall Street,42.36356015842989,-71.08216792345047,Kendall St,Cambridge,Middlesex County,MA,02142
151,Surface Rd at India St,42.358155,-71.052163,Atlantic Ave,Boston,Suffolk County,MA,02110
54,Tremont St at West St,42.354979,-71.063348,Tremont St,Boston,Suffolk County,MA,02111
183,Alewife MBTA at Steel Place,42.39558845716709,-71.14260613918304,Cambridgepark Dr,Cambridge,Middlesex County,MA,02140
98,Warren St at Chelsea St,42.371848,-71.060292,Warren St,Charlestown,Suffolk County,MA,02129
75,Lafayette Square at Mass Ave / Main St / Columbia St,42.36346469304347,-71.10057324171066,Massachusetts Ave,Cambridge,Middlesex County,MA,02139
57,Columbus Ave at Massachusetts Ave,42.34054261551636,-71.08138847914233,Massachusetts Ave,Boston,Suffolk County,MA,02118
149,175 N Harvard St,42.363796,-71.129164,Western Ave,Allston,Suffolk County,MA,02134
184,Sidney Research Campus/ Erie Street at Waverly,42.35775309465199,-71.10393404960632,Erie St,Cambridge,Middlesex County,MA,02139
191,Tappan St at Brookline Hills MBTA,42.33209606301936,-71.128458827734,Tappan St,Brookline,Norfolk County,MA,02445
137,Magoun Square at Trum Field,42.398365,-71.107818,Broadway,Somerville,Middlesex County,MA,02145
214,Airport T Stop - Bremen St at Brooks St,42.37411261907485,-71.03277500727926,Marion St,East Boston,Suffolk County,MA,02128
374,Tremont St at Hamilton Place,42.35668334969929,-71.06166645884514,Tremont St,Boston,Suffolk County,MA,02108
125,Hyde Square - Barbara St at Centre St,42.32176525723952,-71.10984160567114,Centre St,Jamaica Plain,Suffolk County,MA,02130
360,Bartlett St at John Elliot Sq,42.3294633,-71.0901582,John Eliot Sq,Roxbury,Suffolk County,MA,02119
24,Seaport Square - Seaport Blvd at Northern Ave,42.35148193460858,-71.04436084628105,Northern Ave,Boston,Suffolk County,MA,02210
7,Fan Pier,42.3533905070523,-71.04457139968872,Fan,Boston,Suffolk County,MA,02210
162,Franklin Park - Seaver St at Humbolt Ave,42.309796,-71.092225,Seaver St,Dorchester,Suffolk County,MA,02121
171,Bunker Hill Community College,42.37408991426522,-71.06905996799469,Austin St,Charlestown,Suffolk County,MA,02129
362,Columbia Rd at Tierney Community Center,42.33023070528729,-71.05060093123029,Columbia Rd,South Boston,Suffolk County,MA,02127
337,Roslindale Village - South St,42.287072,-71.127754,Washington St,Roslindale,Suffolk County,MA,02131
14,HMS/HSPH - Avenue Louis Pasteur at Longwood Ave,42.3374174845973,-71.10286116600037,Longwood Ave,Boston,Suffolk County,MA,02115
15,Brighton Mills - 370 Western Ave,42.3615457081725,-71.13776206970215,Telford St,Brighton,Suffolk County,MA,02135
100,Davis Square,42.396969,-71.123024,Davis Sq,Somerville,Middlesex County,MA,02144
200,Washington St at Melnea Cass Blvd,42.332817,-71.081198,Washington St,Roxbury,Suffolk County,MA,02119
29,Innovation Lab - 125 Western Ave at Batten Way,42.363732,-71.124565,Western Ave,Allston,Suffolk County,MA,02134
19,Park Dr at Buswell St,42.347241,-71.105301,Park Dr,Boston,Suffolk County,MA,02215
224,Fresh Pond Reservation,42.38267827521855,-71.143478951426,US 3,Cambridge,Middlesex County,MA,02138
236,Assembly Square T,42.39223284004628,-71.07746601104736,Revolution Dr,Somerville,Middlesex County,MA,02145
335,Harvard St at Greene-Rose Heritage Park,42.36599432867437,-71.09522221614498,Harvard St,Cambridge,Middlesex County,MA,02139
330,30 Dane St.,42.38100143038052,-71.10402522613185,Dane St,Somerville,Middlesex County,MA,02143
26,Washington St at Waltham St,42.341522,-71.068922,Washington St,Boston,Suffolk County,MA,02118
140,Danehy Park,42.388966,-71.132788,Sherman St,Cambridge,Middlesex County,MA,02140
136,ID Building West,42.344796,-71.031614,Dry Dock Ave,Boston,Suffolk County,MA,02210
159,S Huntington Ave at Heath St,42.32760387040573,-71.11089169979095,S Huntington Ave,Jamaica Plain,Suffolk County,MA,02130
378,191 Beacon St,42.38032335045416,-71.10878612855231,Beacon St,Somerville,Middlesex County,MA,02143
346,Cleveland Circle,42.335543083570826,-71.15061519672052,Chestnut Hill Ave,Brighton,Suffolk County,MA,02135
124,Curtis Hall - South St at Centre St,42.309054,-71.11543,South St,Jamaica Plain,Suffolk County,MA,02130
212,Maverick Square - Lewis Mall,42.36884408289836,-71.03977829217911,Lewis Mall,Boston,Suffolk County,MA,02128
239,Community Path at Cedar Street,42.39407223665884,-71.11133694648743,Cedar St,Somerville,Middlesex County,MA,02144
5,Northeastern University - North Parking Lot,42.341814,-71.090179,Hemenway St,Boston,Suffolk County,MA,02115
78,Union Square - Somerville,42.379595255143805,-71.09530799109052,Union Sq,Somerville,Middlesex County,MA,02143
161,W Broadway at D St,42.3391085,-71.0514432,W Broadway,South Boston,Suffolk County,MA,02127
213,East Boston Neighborhood Health Center - 20 Maverick Square,42.369536,-71.039431,Maverick Sq,East Boston,Suffolk County,MA,02128
351,Faneuil St at Arlington St,42.35276620545606,-71.15988485533308,Faneuil St,Brighton,Suffolk County,MA,02135
327,Main St at Thompson Sq,42.374878467440965,-71.06383498767171,Main St,Charlestown,Suffolk County,MA,02129
138,Newmarket Square T Stop - Massachusetts Ave at Newmarket Square,42.326599,-71.066498,Massachusetts Ave,Boston,Suffolk County,MA,02118
369,Boston Public Market,42.36254854409333,-71.0573735833168,Blackstone St,Boston,Suffolk County,MA,02109
176,Lesley University,42.38674802045056,-71.11901879310608,Massachusetts Ave,Cambridge,Middlesex County,MA,02140
366,Broadway T Stop,42.34278116224413,-71.05747275072645,W Broadway,South Boston,Suffolk County,MA,02127
367,Vassal Lane at Tobin/VLUS,42.3839322489048,-71.13961271959852,Standish St,Cambridge,Middlesex County,MA,02138
13,Boston Medical Center - E Concord St at Harrison Ave,42.33671641210506,-71.06880776602338,Albany St,Boston,Suffolk County,MA,02118
111,Packard Ave at Powderhouse Blvd,42.40449,-71.123413,Powder House Blvd,Somerville,Middlesex County,MA,02144
279,Williams St at Washington St,42.306539,-71.107669,Washington St,Jamaica Plain,Suffolk County,MA,02130
31,Seaport Hotel - Congress St at Seaport Ln,42.34881026188269,-71.04167744055303,Northern Ave,Boston,Suffolk County,MA,02210
192,Purchase St at Pearl St,42.354659,-71.053181,Atlantic Ave,Boston,Suffolk County,MA,02110
144,Rogers St & Land Blvd,42.36575798214837,-71.07699394226073,Rogers St,Cambridge,Middlesex County,MA,02142
333,699 Mt Auburn St,42.37500235137831,-71.14871613699506,Mt Auburn St,Cambridge,Middlesex County,MA,02138
201,NCAAA - Walnut Ave at Crawford St,42.316902,-71.091946,Crawford St,Dorchester,Suffolk County,MA,02121
9,Commonwealth Ave at Agganis Way,42.35169201885973,-71.11903488636017,Commonwealth Ave,Boston,Suffolk County,MA,02215
336,Mattapan T Stop,42.267902,-71.093641,Blue Hill Ave,Mattapan,Suffolk County,MA,02126
280,Main St at Baldwin St,42.380857,-71.070629,Main St,Charlestown,Suffolk County,MA,02129
169,Edwards Playground - Main St at Eden St,42.378965,-71.068607,Main St,Charlestown,Suffolk County,MA,02129
109,TD Garden - West End Park,42.36590788445084,-71.06446668505669,Lomasney Way,Boston,Suffolk County,MA,02114
163,The Lawn on D,42.344792,-71.044024,D St,Boston,Suffolk County,MA,02210
373,Belgrade Ave at Walworth St,42.28634589486312,-71.13672129828046,Belgrade Ave,Roslindale,Suffolk County,MA,02131
17,Soldiers Field Park - 111 Western Ave,42.36426344063853,-71.1182756971175,Western Ave,Boston,Suffolk County,MA,02163
235,East Somerville Library (Broadway and Illinois),42.3876281075134,-71.08318716287613,Broadway,Somerville,Middlesex County,MA,02145
334,Mass Ave at Hadley/Walden,42.39120971915856,-71.12260755160605,Massachusetts Ave,Cambridge,Middlesex County,MA,02140
203,Columbia Rd at Ceylon St,42.309572,-71.0729,Columbia Rd,Dorchester,Suffolk County,MA,02125
56,Dudley Square - Dudley St at Warren St,42.32854046293402,-71.08416482806204,Dudley St,Roxbury,Suffolk County,MA,02119
135,ID Building East,42.344827,-71.028664,Dry Dock Ave,Boston,Suffolk County,MA,02210
196,Roxbury YMCA - Warren St at MLK Blvd,42.31787329345602,-71.08243077993393,Martin Luther King Jr Blvd,Boston,Suffolk County,MA,02119
215,The Eddy - New St at Sumner St,42.370744,-71.044201,New St,East Boston,Suffolk County,MA,02128
209,Chelsea St at Saratoga St,42.379772,-71.027448,Saratoga St,East Boston,Suffolk County,MA,02128
208,Oak Square - 615 Washington St,42.35057,-71.166491,Washington St,Brighton,Suffolk County,MA,02135
205,Bowdoin St at Quincy St,42.30785224238503,-71.06512248516083,Bowdoin St,Dorchester,Suffolk County,MA,02122
202,Grove Hall Library - 41 Geneva Ave,42.30791,-71.080952,Geneva Ave,Dorchester,Suffolk County,MA,02121
210,Bennington St at Byron St,42.383532520117896,-71.01619094610214,Bennington St,East Boston,Suffolk County,MA,02128
371,700 Huron Ave,42.380788172914286,-71.15412890911102,Huron Ave,Cambridge,Middlesex County,MA,02138
350,Codman Square Library,42.2873611,-71.071111,Washington St,Dorchester Center,Suffolk County,MA,02124
170,Franklin Park Zoo - Franklin Park Rd at Blue Hill Ave,42.303469,-71.085347,Blue Hill Ave,Dorchester,Suffolk County,MA,02121
1,18 Dorrance Warehouse,42.387151,-71.075978,Temple St,Charlestown,Suffolk County,MA,02129
173,Savin Hill T Stop - S Sydney St at Bay St,42.3106,-71.0539,S Sydney St,Dorchester,Suffolk County,MA,02125
349,Washington St at Talbot Ave,42.290333,-71.071806,Norfolk St,Dorchester Center,Suffolk County,MA,02124
341,Roslindale Village - Washington St,42.28630716010807,-71.12820532182013,Washington St,Roslindale,Suffolk County,MA,02131
92,University of Massachusetts Boston - Integrated Sciences Complex,42.314507,-71.041269,William T Morrissey Blvd,Dorchester,Suffolk County,MA,02125
348,Talbot Ave At Blue Hill Ave,42.2945833,-71.087111,Talbot Ave,Dorchester Center,Suffolk County,MA,02124
317,BCBS Quincy,42.27600498756665,-71.03924982267927,Enterprise Dr,Quincy,Norfolk County,MA,02171
380,Mass Ave at Albany St,42.36135837662249,-71.09670273977825,Massachusetts Ave,Cambridge,Middlesex County,MA,02139
379,Tremont St at W. Dedham St,42.34254913737952,-71.07421449387857,Tremont St,Boston,Suffolk County,MA,02118
340,Blue Hill Ave at Almont St,42.27462067181224,-71.09372552493369,Blue Hill Ave,Mattapan,Suffolk County,MA,02126
381,Inman Square at Springfield St.,42.37438408515815,-71.1001574621514,Springfield St,Somerville,Middlesex County,MA,02143
229,8D QC Station 01,42.34503315560333,-71.09664916992188,Boylston St,Boston,Suffolk County,MA,02215
345,Park Plaza at Charles St S.,42.35182806892068,-71.06781138111728,Columbus Ave,Boston,Suffolk County,MA,02116
330,30 Dane St,42.38100143038052,-71.10402522613185,Dane St,Somerville,Middlesex County,MA,02143
374,Tremont St at Hamilton Pl,42.35668334969929,-71.06166645884514,Tremont St,Boston,Suffolk County,MA,02108
353,Mattapan Library,42.2773889,-71.09325,Blue Hill Ave,Mattapan,Suffolk County,MA,02126
36,Copley Square - Dartmouth St at Boylston St,42.3521261226759,-71.07599601185939,Commonwealth Ave,Boston,Suffolk County,MA,02116
109,West End Park,42.36590788445084,-71.06446668505669,Lomasney Way,Boston,Suffolk County,MA,02114
92,University of Massachusetts Boston - Integrated Sciences Complex,42.313917,-71.04025,William T Morrissey Blvd,Dorchester,Suffolk County,MA,02125
233,St Mary's,42.346197076555455,-71.10728681087494,Beacon St,Brookline,Norfolk County,MA,02446
103,JFK Crossing at Harvard St. / Thorndike St.,42.346563,-71.128374,Harvard St,Brookline,Norfolk County,MA,02446
187,Cypress St at Clark Playground,42.32784317478686,-71.1253622174263,Wellington Ter,Brookline,Norfolk County,MA,02445
328,Grove St at Community Path,42.396386809455,-71.12011306006025,Grove St,Somerville,Middlesex County,MA,02144
79,Beacon St at Washington / Kirkland,42.37842,-71.105668,Washington St,Somerville,Middlesex County,MA,02143
194,Broadway St at Mt Pleasant St,42.38614141163957,-71.07828140258789,Broadway,Somerville,Middlesex County,MA,02145
99,Wilson Square,42.385582,-71.113341,Somerville Ave,Somerville,Middlesex County,MA,02143
156,Somerville Hospital,42.39088801721338,-71.10962569713591,Highland Ave,Somerville,Middlesex County,MA,02143
329,Washington St at Myrtle St,42.381699831636816,-71.08377588917392,Myrtle St,Somerville,Middlesex County,MA,02145
36,Copley Square - Dartmouth St at Boylston St,42.34992828230057,-71.07739206866427,Boylston St,Boston,Suffolk County,MA,02116
42,Boylston St at Arlington St,42.352054773220544,-71.07048687257702,Boylston St,Boston,Suffolk County,MA,02116
86,Brookline Village - Pearl Street at MBTA,42.3329989199507,-71.11634425762531,Station St,Brookline,Norfolk County,MA,02445
64,Congress St at Sleeper St,42.351004495946704,-71.04930013418198,Congress St,Boston,Suffolk County,MA,02210
48,Post Office Square - Pearl St at Milk St,42.356755,-71.055407,Congress St,Boston,Suffolk County,MA,02110
113,Andrew T Stop - Dorchester Ave at Dexter St,42.330473650415165,-71.05701684951782,Dorchester Ave,South Boston,Suffolk County,MA,02127
260,Fields Corner T Stop,42.2996667,-71.0605833,Dorchester Ave,Dorchester,Suffolk County,MA,02122
130,Upham's Corner,42.31727474327453,-71.06537003967787,Columbia Rd,Dorchester,Suffolk County,MA,02125
128,E Cottage St at Columbia Rd,42.320561,-71.06198,E Cottage St,Dorchester,Suffolk County,MA,02125
339,Archdale Rd at Washington St,42.29266592872725,-71.12119538714069,Washington St,Roslindale,Suffolk County,MA,02131
368,Blue Hill Ave at Southwood St,42.31786020589988,-71.07798628527235,Blue Hill Ave,Roxbury,Suffolk County,MA,02119
199,Upham's Corner T Stop - Magnolia St at Dudley St,42.318697341722434,-71.0697814822197,Magnolia St,Dorchester,Suffolk County,MA,02125
167,Ryan Playground - Dorchester Ave at Harbor View St,42.317642,-71.056664,Dorchester Ave,Dorchester,Suffolk County,MA,02125
255,Park St at Norwell St,42.2944167,-71.0783056,Norwell St,Dorchester Center,Suffolk County,MA,02124
347,Thetford Ave at Norfolk St,42.286212948246096,-71.07942931372236,Thetford Ave,Dorchester Center,Suffolk County,MA,02124
106,Dudley Town Common - Mt Pleasant Ave at Blue Hill Ave,42.325333,-71.075354,Dudley St,Roxbury,Suffolk County,MA,02119
259,Washington St at Bradlee St,42.29791807622161,-71.07271846392904,Washington St,Dorchester Center,Suffolk County,MA,02124
354,Washington St at Egremont Rd,42.34286835071959,-71.14127840855872,Washington St,Brighton,Suffolk County,MA,02135
357,Centre St at Seaverns Ave,42.3121203,-71.1142981,Centre St,Jamaica Plain,Suffolk County,MA,02130
53,Beacon St at Massachusetts Ave,42.35082680669095,-71.0898108780384,Beacon St,Boston,Suffolk County,MA,02115
55,Boylston St at Massachusetts Ave,42.347265,-71.088088,Boylston St,Boston,Suffolk County,MA,02215
35,Arch St at Franklin St,42.35533501941256,-71.0582291708306,Franklin St,Boston,Suffolk County,MA,02110
60,Charles Circle - Charles St at Cambridge St,42.36018499796463,-71.07086597688976,Charles St,Boston,Suffolk County,MA,02114
122,Burlington Ave at Brookline Ave,42.345733,-71.100694,Brookline Ave,Boston,Suffolk County,MA,02215
204,Walnut Ave at Warren St,42.324081,-71.083235,Walnut Ave,Roxbury,Suffolk County,MA,02119
211,Piers Park,42.3648929326648,-71.03497177362442,Marginal St,East Boston,Suffolk County,MA,02128
216,Glendon St at Condor St,42.38240377674137,-71.03024303913116,Glendon St,East Boston,Suffolk County,MA,02128
186,Congress St at Northern Ave,42.3481,-71.03764,Congress St,Boston,Suffolk County,MA,02210
120,Beacon St at Charles St,42.356052,-71.069849,Beacon St,Boston,Suffolk County,MA,02108
129,Hayes Square - Vine St at Moulton St,42.377022,-71.056605,Vine St,Charlestown,Suffolk County,MA,02129
308,BCBS Hingham,42.16722555541654,-70.90555783370291,Technology Pl,Hingham,Plymouth County,MA,02043
227,Silber Way,42.34949599514002,-71.10057592391968,Commonwealth Ave,Boston,Suffolk County,MA,02215
384,Clarendon St at Commonwealth Ave,42.35219035145307,-71.0760041699723,Commonwealth Ave,Boston,Suffolk County,MA,02116
52,Newbury St at Hereford St,42.348717,-71.085954,Hereford St,Boston,Suffolk County,MA,02115
343,Morton St T,42.280725142920296,-71.08617242434775,Astoria St,Mattapan,Suffolk County,MA,02126
61,Boylston St at Fairfield St,42.348762,-71.082383,Boylston St,Boston,Suffolk County,MA,02116
134,Boylston St at Dartmouth St,42.350413,-71.07655,Boylston St,Boston,Suffolk County,MA,02116
50,Boylston St at Berkeley St,42.3511419825475,-71.07329249382019,Berkeley St,Boston,Suffolk County,MA,02116
384,Clarendon St at Newbury St,42.35155308466532,-71.0756903143556,Newbury St,Boston,Suffolk County,MA,02116
78,Union Square - Somerville,42.37965809715277,-71.09394280244487,Washington St,Somerville,Middlesex County,MA,02143
214,Airport T Stop - Bremen St at Brooks St,42.37533522545788,-71.03131584841321,Brooks St,East Boston,Suffolk County,MA,02128
259,Washington St at Bradlee St,42.29916497936589,-71.07345871645519,Washington St,Dorchester Center,Suffolk County,MA,02124
385,Albany St at E. Brookline St,42.33664795427071,-71.0689445958451,Albany St,Boston,Suffolk County,MA,02118
386,Sennott Park  Broadway at Norfolk Street,42.36860524248197,-71.09930185605663,Broadway,Cambridge,Middlesex County,MA,02139
55,Boylston St at Massachusetts Ave,42.34740620525209,-71.08678414955648,I-90,Boston,Suffolk County,MA,02215
57,Massachusetts Ave at Columbus Ave,42.33949453726166,-71.0802078062261,Tremont St,Boston,Suffolk County,MA,02118
97,Harvard University River Houses at DeWolfe St / Cowperthwaite St,42.36912158206552,-71.1163867230971,Dewolfe St,Cambridge,Middlesex County,MA,02138
386,Sennott Park Broadway at Norfolk Street,42.36860524248197,-71.09930185605663,Broadway,Cambridge,Middlesex County,MA,02139
121,W Broadway at Dorchester St,42.33595897943309,-71.04622899561036,W Broadway,South Boston,Suffolk County,MA,02127
206,Government Center - Cambridge St at Court St,42.3598253979878,-71.05979576244862,Center Plz,Boston,Suffolk County,MA,02108
26,Washington St at Waltham St,42.34157471873748,-71.06890439987183,Washington St,Boston,Suffolk County,MA,02118
21,Prudential Center - 101 Huntington Ave,42.34652003998412,-71.08065776545118,Huntington Ave,Boston,Suffolk County,MA,02199
6,Cambridge St at Joy St,42.36125721646537,-71.06528744101524,Cambridge St,Boston,Suffolk County,MA,02114
42,Boylston St at Arlington St,42.35204262229712,-71.07057809829712,Boylston St,Boston,Suffolk County,MA,02116
60,Charles Circle - Charles St at Cambridge St,42.36079296858265,-71.07118962337152,Charles St,Boston,Suffolk County,MA,02114
134,Boylston St at Dartmouth St FORMER,42.350413,-71.07655,Boylston St,Boston,Suffolk County,MA,02116
184,Sidney Research Campus/Erie Street at Waverly,42.35775309465199,-71.10393404960632,Erie St,Cambridge,Middlesex County,MA,02139
117,Binney St / Sixth St,42.36608797388682,-71.08633603909765,Cambridge Ctr,Cambridge,Middlesex County,MA,02142
329,Washington St at Myrtle St,42.38170675920826,-71.0837718658604,Myrtle St,Somerville,Middlesex County,MA,02145
78,Union Square - Somerville,42.37967448103421,-71.09391324240278,Washington St,Somerville,Middlesex County,MA,02143
130,Uphams Corner,42.31727474327453,-71.06537003967787,Columbia Rd,Dorchester,Suffolk County,MA,02125
66,Commonwealth Ave at Griggs St,42.34922469338298,-71.13275302578586,Commonwealth Ave,Allston,Suffolk County,MA,02134
99,Wilson Square,42.38567578752914,-71.11412136298895,Somerville Ave,Somerville,Middlesex County,MA,02143
137,Magoun Square at Trum Field,42.39778339961249,-71.10594004465383,William St,Medford,Middlesex County,MA,02155
48,Post Office Square,42.35585435522005,-71.05459745998814,Franklin St,Boston,Suffolk County,MA,02110
110,Harvard University Gund Hall at Quincy St / Kirkland St,42.376369,-71.114025,Quincy St,Cambridge,Middlesex County,MA,02138
56,Dudley Square - Bolling Building,42.329842993518085,-71.08386572459494,Warren St,Roxbury,Suffolk County,MA,02119
29,Innovation Lab - 125 Western Ave at Batten Way,42.36314498882458,-71.12298574307715,Hague St,Allston,Suffolk County,MA,02134
156,Somerville Hospital,42.390449490184295,-71.10855950047153,Highland Ave,Somerville,Middlesex County,MA,02143
86,Brookline Village - Station Street at MBTA,42.33274392304887,-71.11626680949485,Brookline Pl,Brookline,Norfolk County,MA,02445
162,Franklin Park - Seaver St at Humboldt Ave,42.309796,-71.092225,Seaver St,Dorchester,Suffolk County,MA,02121
214,Airport T Stop - Bremen St at Brooks St,42.374079742097614,-71.03276392826956,Marion St,East Boston,Suffolk County,MA,02128
260,Fields Corner T Stop,42.300664,-71.060295,Dorchester Ave,Dorchester,Suffolk County,MA,02122
92,University of Massachusetts Boston - Campus Center,42.31218918475612,-71.03648586203235,William T Morrissey Blvd,Dorchester,Suffolk County,MA,02125
255,Park St at Norwell St,42.29442578670662,-71.07821760713703,Norwell St,Dorchester Center,Suffolk County,MA,02124
199,Uphams Corner T Stop - Magnolia St at Dudley St,42.318697341722434,-71.0697814822197,Magnolia St,Dorchester,Suffolk County,MA,02125
387,7 Acre Park,42.41143222973408,-71.06823265090497,Tremont St,Everett,Middlesex County,MA,02149
389,Everett Square (Broadway at Chelsea St),42.40725945172653,-71.05546381333625,Broadway,Everett,Middlesex County,MA,02149
388,Main Street at Carter Street,42.406151572663504,-71.0604074504954,Otis St,Everett,Middlesex County,MA,02149
390,Broadway at Lynde St,42.39648358247693,-71.06546759905541,Bow St,Everett,Middlesex County,MA,02149
392,Glendale Square (Ferry St at Broadway),42.41427294293992,-71.04479655659816,Russell St,Everett,Middlesex County,MA,02149
394,Broadway at Maple St,42.410346909767846,-71.05260457852637,Broadway,Everett,Middlesex County,MA,02149
397,Broadway at Beacham St,42.39836059620832,-71.06373842814719,Broadway,Everett,Middlesex County,MA,02149
396,Wasgatt Playground,42.4093300667225,-71.06381878293178,Winslow St,Everett,Middlesex County,MA,02149
391,Encore,42.39329263225162,-71.0724475979805,Alford St,Charlestown,Suffolk County,MA,02129
395,Chelsea St at Vine St,42.40328056972533,-71.04762639859473,Chelsea St,Everett,Middlesex County,MA,02149
393,Swan St. Park,42.412504507772105,-71.05842225271772,Swan St,Everett,Middlesex County,MA,02149
398,75 Binney St,42.36550728505653,-71.0801375997653,Binney St,Cambridge,Middlesex County,MA,02142
273,Forest Hills,42.300923,-71.114249,Morton St,Jamaica Plain,Suffolk County,MA,02130
272,Shawmut T Stop,42.292917,-71.06575,Clementine Park,Dorchester Center,Suffolk County,MA,02124
399,Shawmut Ave at Oak St W,42.34854543411198,-71.06559185315746,Tremont St,Boston,Suffolk County,MA,02116
271,Ashmont T Stop,42.2856944,-71.0641389,Ashmont St,Dorchester Center,Suffolk County,MA,02124
400,Lansdowne T Stop,42.34734473177431,-71.1001680795016,David Ortiz Dr,Boston,Suffolk County,MA,02215
403,Marion St at Harvard St,42.33978052668946,-71.12133350232398,Harvard St,Brookline,Norfolk County,MA,02446
402,Washington St at Griggs Rd,42.33833423719901,-71.13050930220197,Washington St,Brookline,Norfolk County,MA,02446
401,High St at Cypress St,42.32538435700882,-71.12177595532557,Cypress St,Brookline,Norfolk County,MA,02445
404,Mass Ave T Station,42.34135615767354,-71.08336953450817,Massachusetts Ave,Boston,Suffolk County,MA,02115
13,Boston Medical Center - E Concord St at Harrison Ave,42.33639915372498,-71.07306711393903,E Concord St,Boston,Suffolk County,MA,02118
406,Somerville City Hall Annex,42.39189811591863,-71.09745375830244,Evergreen Ave,Somerville,Middlesex County,MA,02145
101,Ball Sq,42.39918259930251,-71.11104454854285,Boston Ave,Somerville,Middlesex County,MA,02144
405,Sydney St at Carson St,42.32039374304257,-71.05355408051764,Carson St,Dorchester,Suffolk County,MA,02125
408,Edgerly Education Center,42.38717463348314,-71.08714388528824,Cross St,Somerville,Middlesex County,MA,02145
407,Craigie at Summer St,42.388305537644,-71.11067976811682,Summer St,Somerville,Middlesex County,MA,02143
114,Teele Square,42.40231703379005,-71.12671129423688,Holland St,Somerville,Middlesex County,MA,02144
409,Elm St at White St,42.38952436305763,-71.11694140364307,Elm St,Somerville,Middlesex County,MA,02144
112,Clarendon Hill at Broadway,42.406302,-71.132446,Broadway,Somerville,Middlesex County,MA,02144
410,Adams St at Lonsdale St,42.291679428741226,-71.05726346409938,Adams St,Dorchester,Suffolk County,MA,02122
412,Washington St at Peters Park,42.34303291130257,-71.06688730436872,Washington St,Boston,Suffolk County,MA,02118
411,Dorchester Ave at King St,42.29175621632091,-71.0625918023743,Dorchester Ave,Dorchester Center,Suffolk County,MA,02124
47,Cross St at Hanover St,42.362811,-71.056067,Hanover St,Boston,Suffolk County,MA,02113
413,Kennedy-Longfellow School 158 Spring St,42.36955297756508,-71.08579014980933,Spring St,Cambridge,Middlesex County,MA,02141
415,Stuart St at Berkeley St,42.34954403114251,-71.0724207387284,Stuart St,Boston,Suffolk County,MA,02116
416,Blossom St at Charles St,42.36435589027983,-71.0695936904267,Blossom St,Boston,Suffolk County,MA,02114
417,Columbus Ave at W. Canton St,42.34474224772802,-71.07648162175792,Columbus Ave,Boston,Suffolk County,MA,02116
414,Discovery Park - 30 Acorn Park Drive,42.39790817368333,-71.14797130814623,Acorn Park Dr,Cambridge,Middlesex County,MA,02140
420,Charles St at Pinckney St,42.35872530462163,-71.07079532006537,Charles St,Boston,Suffolk County,MA,02114
44,Congress St at Boston City Hall,42.36041774637169,-71.05752243543975,City Hall Plz,Boston,Suffolk County,MA,02201
419,Central Square East Boston,42.37544912547037,-71.03918548682486,William C Kelly Sq,East Boston,Suffolk County,MA,02128
421,Northbourne Rd at Hyde Park Ave,42.29118034790426,-71.117736660035,Northbourne Rd,Jamaica Plain,Suffolk County,MA,02130
422,American Legion Hwy at Canterbury St,42.278811581565975,-71.11687703062671,Canterbury St,Roslindale,Suffolk County,MA,02131
423,Mt. Hope St at Hyde Park Ave,42.28484472443536,-71.11874517062459,Hyde Park Ave,Roslindale,Suffolk County,MA,02131
426,Surface Rd at Summer St,42.35294569782581,-71.05656400803126,Federal St,Boston,Suffolk County,MA,02110
425,The Dimock Center,42.3193094317828,-71.09639923859504,Dimock St,Roxbury,Suffolk County,MA,02119
424,Jamaica St at South St,42.3060456272408,-71.11570891001975,Metcalf Ct,Jamaica Plain,Suffolk County,MA,02130
428,Western Ave at Richardson St,42.36178741066188,-71.14393111327445,Western Ave,Brighton,Suffolk County,MA,02135
427,Washington St at Denton Terr,42.280728147169015,-71.13423757273267,Denton Ter,Roslindale,Suffolk County,MA,02131
56,Dudley Square - Dudley St at Warren St,42.329842993518085,-71.08386572459494,Warren St,Roxbury,Suffolk County,MA,02119
400,Big Papi Station,42.34734473177431,-71.1001680795016,David Ortiz Dr,Boston,Suffolk County,MA,02215
44,Congress St at North St,42.36041774637169,-71.05752243543975,City Hall Plz,Boston,Suffolk County,MA,02201
393,Ferry St at Pleasantview Ave,42.40914877754532,-71.04597684005057,Ferry St,Everett,Middlesex County,MA,02149
396,Main St at Beacon St,42.41072713868097,-71.06266822675025,Main St,Everett,Middlesex County,MA,02149
387,Norman St at Kelvin St,42.40581171700586,-71.06708850720679,Santilli Hwy,Everett,Middlesex County,MA,02149
114,Teele Square,42.40203828065014,-71.1265329148955,Holland St,Somerville,Middlesex County,MA,02144
392,Glendale Square (Ferry St at Broadway),42.41480160999569,-71.04772560316633,Ferry St,Everett,Middlesex County,MA,02149
101,Ball Sq,42.39915588714573,-71.11102573591778,Boston Ave,Somerville,Middlesex County,MA,02144
388,Main Street at Carter Street,42.40413,-71.0613,Main St,Everett,Middlesex County,MA,02149
86,Brookline Village - Station Street at MBTA,42.3329989199507,-71.11634425762531,Station St,Brookline,Norfolk County,MA,02445
407,Craigie at Summer St,42.38828872616418,-71.11071459967206,Summer St,Somerville,Middlesex County,MA,02143
422,Cummins at American Legion,42.278811581565975,-71.11687703062671,Canterbury St,Roslindale,Suffolk County,MA,02131
430,Washington St at Walsh Playground,42.27719469639791,-71.06955613950048,Washington St,Dorchester Center,Suffolk County,MA,02124
432,Centre St at W. Roxbury Post Office,42.28633199112775,-71.15344755369732,Centre St,West Roxbury,Suffolk County,MA,02132
431,Washington St at Fuller St,42.281986277339136,-71.07147924620222,Washington St,Dorchester Center,Suffolk County,MA,02124
433,Centre St at Parkway YMCA,42.28277901074054,-71.15728851416861,Centre St,West Roxbury,Suffolk County,MA,02132
435,Central Ave at River St,42.27094707029229,-71.07337901405117,Central Ave,Mattapan,Suffolk County,MA,02126
436,Maverick St at Massport Path,42.36774122306014,-71.0333597474255,Maverick St,East Boston,Suffolk County,MA,02128
437,Berkshire Street at Cambridge Street,42.37207657915397,-71.08995433905875,Berkshire St,Cambridge,Middlesex County,MA,02141
438,Mobile Temporary Station,42.35967536371111,-71.10160055174674,Landsdowne St,Cambridge,Middlesex County,MA,02139
434,Spring St at Powell St,42.277484442008216,-71.16341467955863,Powell St,West Roxbury,Suffolk County,MA,02132
42,Boylston St at Arlington St,42.35258779507021,-71.06764905172895,Boylston St,Boston,Suffolk County,MA,02116
26,Washington St at Waltham St,42.34155984972459,-71.06886953115463,Waltham St,Boston,Suffolk County,MA,02118
438,Mobile Temporary Station,42.34397624831833,-71.08598473086202,Massachusetts Ave,Boston,Suffolk County,MA,02115
440,Boston Landing,42.35656092308941,-71.14167537549292,Guest St,Brighton,Suffolk County,MA,02135
441,Sullivan Square,42.38445225635844,-71.07514854529654,Cambridge St,Charlestown,Suffolk County,MA,02129
443,Whittier St Health Center,42.33286288486264,-71.09218861916816,Tremont St,Roxbury Crossing,Suffolk County,MA,02120
442,Hyde Park Ave at Walk Hill St,42.29606704649873,-71.11601199963843,Walk Hill St,Jamaica Plain,Suffolk County,MA,02130
446,700 Commonwealth Ave.,42.34960945333059,-71.10391523698127,Commonwealth Ave,Boston,Suffolk County,MA,02215
445,Geiger Gibson Community Health Center,42.31886468217537,-71.04536797860419,Mt Vernon St,Dorchester,Suffolk County,MA,02125
329,Washington St at Myrtle St,42.3809979975628,-71.08721308428358,Washington St,Cambridge,Middlesex County,MA,02139
78,Union Square - Somerville,42.37967148149253,-71.0954931006745,Union Sq,Somerville,Middlesex County,MA,02143
156,Somerville Hospital,42.39678588551018,-71.1023729667977,Broadway,Medford,Middlesex County,MA,02155
101,Ball Sq,42.397822126245096,-71.1060666978301,William St,Medford,Middlesex County,MA,02155
407,Craigie at Summer St,42.38363402274288,-71.10855814078604,Somerville Ave,Somerville,Middlesex County,MA,02143
396,Main St at Beacon St,42.4093300667225,-71.06381878293178,Winslow St,Everett,Middlesex County,MA,02149
393,Ferry St at Pleasantview Ave,42.412504507772105,-71.05842225271772,Swan St,Everett,Middlesex County,MA,02149
214,Airport T Stop - Bremen St at Brooks St,42.37408320248276,-71.03274185079499,Marion St,East Boston,Suffolk County,MA,02128
387,Norman St at Kelvin St,42.40985877544303,-71.06631867605756,Tremont St,Everett,Middlesex County,MA,02149
438,Mobile Temporary Station,42.35147849233603,-71.044162200742,Northern Ave,Boston,Suffolk County,MA,02210
57,Massachusetts Ave at Columbus Ave,42.34054261551636,-71.08138847914233,Massachusetts Ave,Boston,Suffolk County,MA,02118
214,Airport T Stop - Bremen St at Brooks St,42.37535497133996,-71.03133335709572,Brooks St,East Boston,Suffolk County,MA,02128
32,Landmark Center - Brookline Ave at Park Dr,42.34369055719748,-71.10235286881107,Brookline Ave,Boston,Suffolk County,MA,02215
387,Norman St at Kelvin St,42.41143222973408,-71.06823265090497,Tremont St,Everett,Middlesex County,MA,02149
447,The Overlook at St. Gabriel's,42.34679008347347,-71.14549813806661,Washington St,Brighton,Suffolk County,MA,02135
448,Hale Park,42.414962648832656,-71.05279301009432,Glendale St,Everett,Middlesex County,MA,02149
450,Beacon St at Englewood Ave,42.33736915370925,-71.14485977232107,Beacon St,Brookline,Norfolk County,MA,02445
452,Beacon St at St. Paul St,42.34373094998716,-71.11614107161584,Beacon St,Brookline,Norfolk County,MA,02446
453,Beacon St at Hawes St,42.34496783328529,-71.11040176903771,Beacon St,Brookline,Norfolk County,MA,02446
451,Washington Sq,42.33940659197945,-71.13489642273635,Beacon St,Brookline,Norfolk County,MA,02446
255,Park St at Norwell St,42.29208959672596,-71.0784115619208,Talbot Ave,Dorchester Center,Suffolk County,MA,02124
454,Boylston St at Dartmouth St,42.35010609546997,-71.07720464005979,Boylston St,Boston,Suffolk County,MA,02116
455,Coolidge Sq.,42.37207611472287,-71.15683130688922,Mt Auburn St,Watertown,Middlesex County,MA,02472
458,Watertown Sq,42.365260317694485,-71.18573324459247,Galen St,Watertown,Middlesex County,MA,02472
457,N. Beacon St at N. Beacon Ct,42.36444157139109,-71.18091373646166,N Beacon St,Watertown,Middlesex County,MA,02472
456,Graham and Parks School – Linnaean St at Walker St,42.38294430172271,-71.12449831038248,Linnaean St,Cambridge,Middlesex County,MA,02138
459,Canal St at Causeway St,42.36530094929082,-71.06092190993877,Canal St,Boston,Suffolk County,MA,02114
460,Broad St at Central St,42.35849449039304,-71.05426469875965,Broad St,Boston,Suffolk County,MA,02109
461,Railroad Lot and Minuteman Bikeway,42.416084844039744,-71.15315407052549,Massachusetts Ave,Arlington,Middlesex County,MA,02476
462,Linwood St at Minuteman Bikeway,42.40935395518158,-71.14906518727366,Linwood St,Arlington,Middlesex County,MA,02474
463,Smith Pl at Wilson Rd,42.39239749145834,-71.15058331757609,Wilson Rd,Cambridge,Middlesex County,MA,02138
464,Mass Ave at Grafton St,42.40726052447951,-71.14382132425817,Massachusetts Ave,Arlington,Middlesex County,MA,02474
465,Broadway at Grafton St,42.40994213011757,-71.14009319811885,Broadway,Arlington,Middlesex County,MA,02474
467,Washington St at Crafts St,42.35389024396587,-71.19943707257335,Washington St,Newton,Middlesex County,MA,02458
470,Union St at Herrick Rd – Newton Centre Green Line,42.32956868185623,-71.19367271661758,Herrick Rd,Newton Center,Middlesex County,MA,02459
466,Centre St at Washington St,42.35574334805774,-71.18641942508475,Centre St,Newton,Middlesex County,MA,02458
469,Bacon St at Washington St,42.35711920909866,-71.1860453666327,Washington St,Newton,Middlesex County,MA,02458
468,Nonantum Library,42.36068455768156,-71.20146199598821,Watertown St,Newton,Middlesex County,MA,02458
476,Boylston St at Charles St,42.3525760946701,-71.06764405041758,Boylston St,Boston,Suffolk County,MA,02116
478,Gove St at Orleans St,42.37057753242139,-71.03558540113227,Orleans St,East Boston,Suffolk County,MA,02128
471,MIT Carleton St at Amherst St,42.36054174140606,-71.08669817447662,Ames St,Cambridge,Middlesex County,MA,02142
472,MIT Hayward St at Amherst St,42.36085937353302,-71.08551858007559,Carleton St,Cambridge,Middlesex County,MA,02142
477,Marion St at White St,42.38066930871317,-71.03907315999093,Meridian St,East Boston,Suffolk County,MA,02128
475,Arsenal Yards,42.36277388549605,-71.15764854490408,Arsenal Yards Blvd,Watertown,Middlesex County,MA,02472
474,West Newton Armory,42.34947178098653,-71.22000678911718,Armory St,West Newton,Middlesex County,MA,02465
473,West Newton,42.34960049864208,-71.2262749671936,Washington St,West Newton,Middlesex County,MA,02465
479,Galileo Galilei Way at Main Street,42.363003781560096,-71.08974037706501,Cambridge Ctr,Cambridge,Middlesex County,MA,02142
480,Thorndike Field at Minuteman Bikeway,42.40016804853787,-71.14456963094199,Varnum St,Arlington,Middlesex County,MA,02474
481,645 Summer St,42.341780891371904,-71.03987016504107,Summer St,Boston,Suffolk County,MA,02210
482,Kearins Playground,42.40616124132245,-71.06041654944418,Otis St,Everett,Middlesex County,MA,02149
483,Porzio Park,42.364119035231525,-71.02876782417297,Sumner St,East Boston,Suffolk County,MA,02128
485,Revere City Hall,42.40741,-71.0139,Broadway,Revere,Suffolk County,MA,02151
487,Community Path at Lowell St,42.392525,-71.105587,Lowell St,Somerville,Middlesex County,MA,02144
489,Day Sq,42.379295,-71.027733,Chelsea St,East Boston,Suffolk County,MA,02128
78,Union Square - Somerville,42.379584,-71.095236,Union Sq,Somerville,Middlesex County,MA,02143
486,Langley Lot,42.330528,-71.192861,Langley Rd,Newton Center,Middlesex County,MA,02459
488,Martha Eliot Health Center,42.324173,-71.10196,Bickford St,Jamaica Plain,Suffolk County,MA,02130
490,Blue Hill Ave at Havelock St,42.286012,-71.090986,Blue Hill Ave,Dorchester Center,Suffolk County,MA,02124
484,Revere Public Library,42.408088,-71.008942,Beach St,Revere,Suffolk County,MA,02151
491,Harrison Ave at E. Dedham St,42.339194,-71.06975,Harrison Ave,Boston,Suffolk County,MA,02118
492,Harvard Stadium: N. Harvard St at Soldiers Field Rd,42.368019,-71.1242,Soldiers Field Rd,Boston,Suffolk County,MA,02163
494,Watertown Town Hall,42.367621,-71.187936,Main St,Watertown,Middlesex County,MA,02472
497,Washington St @ New Washington St (Temp Winter Station),42.381056,-71.087083,Washington St,Cambridge,Middlesex County,MA,02139
496,Trum Field @ Cedar St (Temp Winter Station),42.398444,-71.107833,Broadway,Somerville,Middlesex County,MA,02145
495,Union Square East (Temp Winter Station),42.380078,-71.090098,Washington St,Somerville,Middlesex County,MA,02143
498,Broadway Opposite Norwood Ave  (Temp Winter Station),42.396764,-71.102376,Broadway,Medford,Middlesex County,MA,02155
103,JFK Crossing at Harvard St. / Thorndike St.,42.344952,-71.127351,Fuller St,Brookline,Norfolk County,MA,02446
499,Conway Park @ Bleachery Ct (Temp Winter Station),42.3836409294306,-71.10868692398071,Somerville Ave,Somerville,Middlesex County,MA,02143
493,2 Hummingbird Lane at Olmsted Green,42.28887,-71.095003,W Main St,Dorchester Center,Suffolk County,MA,02124
97,Harvard University River Houses at DeWolfe St / Cowperthwaite St,42.36920617098944,-71.11710637807846,Dewolfe St,Cambridge,Middlesex County,MA,02138
29,Innovation Lab - 125 Western Ave at Batten Way,42.36371276003581,-71.12459778785706,Western Ave,Allston,Suffolk County,MA,02134
78,Union Square - Somerville,42.37971603393044,-71.09391331672668,Washington St,Somerville,Middlesex County,MA,02143
103,JFK Crossing at Harvard St. / Thorndike St.,42.346551241753566,-71.1283321143128,Harvard St,Brookline,Norfolk County,MA,02446
504,Bellingham Square,42.39301409032274,-71.0339249682147,Broadway,Chelsea,Suffolk County,MA,02150
505,Chelsea Square,42.39022671103383,-71.03857017704286,Broadway,Chelsea,Suffolk County,MA,02150
506,Broadway at Gerrish Ave,42.39453079292221,-71.03085594484583,Broadway,Chelsea,Suffolk County,MA,02150
502,160 Arsenal,42.36466403441681,-71.17569386959076,Beacon Park,Watertown,Middlesex County,MA,02472
503,Cary Square,42.398135645582464,-71.030709722545,Gardner St,Chelsea,Suffolk County,MA,02150
507,Chelsea Station,42.39636527849676,-71.03987179230899,Everett Ave,Chelsea,Suffolk County,MA,02150
508,855 Broadway,42.398417726101584,-71.02390923402707,Broadway,Chelsea,Suffolk County,MA,02150
509,Nichols Ave. at Watertown Greenway,42.36762048745005,-71.1565663665533,Nichols Ave,Watertown,Middlesex County,MA,02472
504,Bellingham Square,42.3931961102951,-71.03344559669495,Broadway,Chelsea,Suffolk County,MA,02150
381,Inman Square at Springfield St.,42.37354190072053,-71.09986782073975,Cambridge St,Cambridge,Middlesex County,MA,02139
71,Conway Park - Somerville Avenue,42.383638948222654,-71.10853672027588,Somerville Ave,Somerville,Middlesex County,MA,02143
510,Mass Ave at Broadway,42.414202132001854,-71.15051883389242,Broadway,Arlington,Middlesex County,MA,02474
211,Piers Park,42.36501119822304,-71.03528559207916,Marginal St,East Boston,Suffolk County,MA,02128
381,Inman Square at Springfield St.,42.37426713524931,-71.10026478767395,Springfield St,Cambridge,Middlesex County,MA,02139
214,Airport T Stop - Bremen St at Brooks St,42.37532834534001,-71.03132128715515,Brooks St,East Boston,Suffolk County,MA,02128
191,Tappan St at Brookline Hills MBTA,42.33295289698479,-71.12824756309236,Davis Ave,Brookline,Norfolk County,MA,02445
396,Wasgott Playground,42.4093300667225,-71.06381878293178,Winslow St,Everett,Middlesex County,MA,02149
384,Clarendon St at Newbury St,42.35159662465317,-71.0756166279316,Newbury St,Boston,Suffolk County,MA,02116
367,Vassal Lane at Tobin/VLUS,42.38536765218425,-71.13775670528412,Concord Ave,Cambridge,Middlesex County,MA,02138
259,Washington St at Bowdoin St,42.29916497936589,-71.07345871645519,Washington St,Dorchester Center,Suffolk County,MA,02124
511,Bellevue T Stop,42.28611420958351,-71.14636927843094,Belgrade Ave,Roslindale,Suffolk County,MA,02131
512,Knoll St at Centre St,42.29376656473529,-71.1365658044815,Centre St,Roslindale,Suffolk County,MA,02131
495,Union Square East,42.380078,-71.090098,Washington St,Somerville,Middlesex County,MA,02143
514,Pearl St at Medford St,42.38815705419525,-71.09588742256165,Pearl St,Somerville,Middlesex County,MA,02145
515,955 Mass Ave,42.36895180540729,-71.10998779535294,Massachusetts Ave,Cambridge,Middlesex County,MA,02139
513,Roseland St At Dorchester Ave,42.2911685327193,-71.06300890445709,Dorchester Ave,Dorchester Center,Suffolk County,MA,02124
516,Salem Ferry Landing,42.52189284110247,-70.8806911110878,Blaney St,Salem,Essex County,MA,01970
520,Salem MBTA - Washington at Federal St,42.52345239346618,-70.89611113071442,Federal St,Salem,Essex County,MA,01970
519,Mayor Salvo Path at Mill St,42.51803519796769,-70.89570075273514,Canal St,Salem,Essex County,MA,01970
518,Shetland Park - Congress at Peabody St,42.51836788262243,-70.88952362537384,Ward St,Salem,Essex County,MA,01970
517,Salem Willows Park,42.53466911383265,-70.87021440267563,Ft Ave,Salem,Essex County,MA,01970
521,Lafayette at Leach St,42.51142784358897,-70.89183300733566,Leach St,Salem,Essex County,MA,01970
522,Salem State University - Bike Path at Loring Ave,42.50182398896298,-70.89478075504303,Loring Ave,Salem,Essex County,MA,01970
524,Newton Highlands T,42.322065656952944,-71.2063729763031,Walnut St,Newton Highlands,Middlesex County,MA,02461
523,Boston College T,42.33987891612856,-71.16708934307098,Commonwealth Ave,Chestnut Hill,Middlesex County,MA,02467
525,California at Chapel,42.365148708129546,-71.20236039161682,California St,Newton,Middlesex County,MA,02458
526,Beacon at Walnut,42.330062324403,-71.20668411254883,Walnut St,Newton Highlands,Middlesex County,MA,02461
527,Newton Library,42.33620336883013,-71.207794547081,Homer St,Newton Center,Middlesex County,MA,02459
401,High St at Cypress St,42.32464510949409,-71.12135231494904,High St,Brookline,Norfolk County,MA,02445
260,Fields Corner T Stop,42.29963348842063,-71.06068975823291,Dorchester Ave,Dorchester,Suffolk County,MA,02122
528,Washington St at Walnut St,42.351458116963016,-71.20764970779419,Walnut St,Newtonville,Middlesex County,MA,02460
529,One Beacon St,42.358477644348106,-71.06135129928589,Somerset St,Boston,Suffolk County,MA,02108
530,Foley St at Grand Union Blvd,42.39301840035393,-71.08071684837341,Foley St,Somerville,Middlesex County,MA,02145
531,Harvard St and Stedman St,42.3443517550051,-71.12490355968475,Harvard St,Brookline,Norfolk County,MA,02446
452,1200 Beacon St,42.34414898749529,-71.11467361450195,Beacon St,Brookline,Norfolk County,MA,02446
532,Concord Ave at Spinelli Place,42.390719,-71.1538877,Concord Ave,Cambridge,Middlesex County,MA,02138
533,Danehy Park at New Street,42.389456,-71.139019,New St,Cambridge,Middlesex County,MA,02138
534,Adams Branch Library,42.286011,-71.054689,Adams St,Dorchester,Suffolk County,MA,02122
195,Child St at North St,42.37228487344452,-71.07383824772114,Jacobs St,Cambridge,Middlesex County,MA,02141
536,Clinton St at North St,42.3607028354884,-71.05524927377701,Faneuil Hall Marketplace,Boston,Suffolk County,MA,02109
535,Auburndale,42.34805541493346,-71.2477594614029,Commonwealth Ave,Auburndale,Middlesex County,MA,02466
537,Charles River Greenway - California St. at Fifth Ave,42.36455361053197,-71.19100391864777,5th Ave,Watertown,Middlesex County,MA,02472
538,Circuit Drive at American Legion Hwy,42.29704126420948,-71.09171926975249,American Legion Hwy,Dorchester Center,Suffolk County,MA,02124
539,Walnut Ave at School St,42.31242399029812,-71.09616905450821,School St,Roxbury,Suffolk County,MA,02119
541,Orr Sq (Shirley Ave),42.40715655698643,-70.99272429943085,Orr Sq,Revere,Suffolk County,MA,02151
540,Sumner St at Shirley Ave,42.40833705812975,-70.99804848432541,Shirley Ave,Revere,Suffolk County,MA,02151
542,Hyde Park Ave at Arlington St,42.26286746177123,-71.12163126468657,Hyde Park Ave,Hyde Park,Suffolk County,MA,02136
543,American Legion Hwy at Hyde Park Ave,42.27265394101898,-71.119903922081,Hyde Park Ave,Hyde Park,Suffolk County,MA,02136
422,American Legion Hwy at Cummins Hwy,42.278811581565975,-71.11687703062671,Canterbury St,Roslindale,Suffolk County,MA,02131
544,Old Morse Park at Putnam Ave,42.35766247889882,-71.1084133386612,Putnam Ave,Cambridge,Middlesex County,MA,02139
545,Morton St at Gallivan Blvd,42.278747,-71.080286,Morton St,Mattapan,Suffolk County,MA,02126
546,Cleary Sq,42.2556,-71.12444,Hyde Park Ave,Hyde Park,Suffolk County,MA,02136
549,Valenti Way at Haverhill St,42.36473898691789,-71.05934903025626,Canal St,Boston,Suffolk County,MA,02114
547,606 American Legion Hwy at Canterbury St,42.28578,-71.109725,American Legion Hwy,Roslindale,Suffolk County,MA,02131
73,Harvard Square at Brattle St / Eliot St,42.37430756279711,-71.11942842539065,Church St,Cambridge,Middlesex County,MA,02138
78,Union Square - Somerville,42.37959212898343,-71.09531528175012,Union Sq,Somerville,Middlesex County,MA,02143
156,Somerville Hospital,42.39676495119988,-71.10237744305323,Broadway,Medford,Middlesex County,MA,02155
144,Rogers St & Land Blvd,42.366446738529454,-71.07654601335526,Land Blvd,Cambridge,Middlesex County,MA,02141
42,Boylston St at Arlington St,42.35254842775383,-71.06767407367443,Boylston St,Boston,Suffolk County,MA,02116
402,Washington St at Griggs Rd,42.33985827126298,-71.13421171095978,Beacon St,Brookline,Norfolk County,MA,02446
403,Marion St at Harvard St,42.34012242696642,-71.12070563810447,Harvard St,Brookline,Norfolk County,MA,02446
407,Craigie at Summer St,42.38350130091656,-71.10808975291548,Somerville Ave,Somerville,Middlesex County,MA,02143
101,Ball Sq,42.39843120515256,-71.10781000366387,Broadway,Somerville,Middlesex County,MA,02145
214,Airport T Stop - Bremen St at Brooks St,42.3741106053353,-71.0327721095473,Marion St,East Boston,Suffolk County,MA,02128
461,Railroad Lot and Minuteman Bikeway,42.41606457115141,-71.15336636682059,Massachusetts Ave,Arlington,Middlesex County,MA,02476
329,Washington St at Myrtle St,42.38097703153345,-71.08725410060288,Washington St,Cambridge,Middlesex County,MA,02139
550,Somerville High School & Central Library,42.3864,-71.09601,Highland Ave,Somerville,Middlesex County,MA,02143
553,Cambridge Crossing at North First Street,42.371141,-71.076198,Monsignor O'brien Hwy,Cambridge,Middlesex County,MA,02141
548,555 Metropolitan Ave,42.2681,-71.11924,Metropolitan Ave,Hyde Park,Suffolk County,MA,02136
554,Forsyth St at Huntington Ave,42.339202,-71.090511,Forsyth St,Boston,Suffolk County,MA,02115
73,Harvard Square at Brattle St / Eliot St,42.373328798874056,-71.12098601080106,Brattle St,Cambridge,Middlesex County,MA,02138
557,Galileo Galilei Way at Fulkerson St/Binney St,42.3664204,-71.0885418,Binney St,Cambridge,Middlesex County,MA,02142
555,Hyde Park Library,42.2568376,-71.122509,Winthrop St,Hyde Park,Suffolk County,MA,02136
474,Watertown St at Albemarle Rd,42.354104081396585,-71.21382214128971,Albemarle Rd,Newtonville,Middlesex County,MA,02460
558,St. Alphonsus St at Tremont St,42.33329254719182,-71.10124647617339,Tremont St,Roxbury Crossing,Suffolk County,MA,02120
78,Union Square - Somerville,42.37972290425592,-71.09387857210095,Washington St,Somerville,Middlesex County,MA,02143
497,Washington St @ New Washington St (Temp Winter Station),42.38103731531107,-71.08709779349738,Washington St,Somerville,Middlesex County,MA,02143
561,Pier 4 Blvd at Autumn Ln,42.3502102,-71.0446705,Blvd,Boston,Suffolk County,MA,02210
560,Flat 9 at Whittier,42.33420351352245,-71.08767616843123,Ruggles St,Roxbury Crossing,Suffolk County,MA,02120
556,Ross Playground,42.2645666,-71.1145523,Westminster St,Hyde Park,Suffolk County,MA,02136
329,Washington St at Myrtle St,42.3817508,-71.0839523,Myrtle St,Somerville,Middlesex County,MA,02145
101,Ball Sq,42.39920335720869,-71.11102235516228,Boston Ave,Somerville,Middlesex County,MA,02144
156,Somerville Hospital,42.390446216041305,-71.10856622457504,Highland Ave,Somerville,Middlesex County,MA,02143
407,Craigie at Summer St,42.38831607584243,-71.1106824874878,Summer St,Somerville,Middlesex County,MA,02143
79,Beacon St at Washington / Kirkland,42.37875351212593,-71.10707223415375,Holden Grn,Cambridge,Middlesex County,MA,02138
559,Centre St at Commonwealth Ave,42.3362358,-71.1934421,Centre St,Newton Center,Middlesex County,MA,02459
562,Hawthorne Boulevard,42.5223714,-70.8903331,Essex St,Salem,Essex County,MA,01970
214,Airport T Stop - Bremen St at Brooks St,42.37534192670574,-71.03128910064696,Brooks St,East Boston,Suffolk County,MA,02128
42,Boylston St at Arlington St,42.35200960743121,-71.07060294892108,Boylston St,Boston,Suffolk County,MA,02116
61,Boylston St at Fairfield St,42.34908155168097,-71.08192384243011,Boylston St,Boston,Suffolk County,MA,02116
78,Union Square - Somerville,42.37964789967527,-71.09540475672475,Union Sq,Somerville,Middlesex County,MA,02143
84,CambridgeSide Galleria - CambridgeSide PL at Land Blvd,42.367074071490926,-71.07679277658461,Charles Park,Cambridge,Middlesex County,MA,02142
364,Tremont St at Northampton St,42.338431795290944,-71.08169049924982,Tremont St,Boston,Suffolk County,MA,02118
195,Child Street at Brian P. Murphy Staircase,42.37197678467975,-71.07200495972165,Child St,Cambridge,Middlesex County,MA,02141
57,Massachusetts Ave at Columbus Ave,42.340814,-71.0816197,Massachusetts Ave,Boston,Suffolk County,MA,02118
402,Washington Sq,42.33985827126298,-71.13421171095978,Beacon St,Brookline,Norfolk County,MA,02446
389,Everett Square (Broadway at Chelsea St),42.406956789102416,-71.05650289605819,School St,Everett,Middlesex County,MA,02149
563,Addison St at Saratoga St,42.38518146513944,-71.0151367,Addison St,East Boston,Suffolk County,MA,02128
564,Raymond Park at Walden St,42.38736953747185,-71.12761001482795,Raymond St,Cambridge,Middlesex County,MA,02140
448,Hale Park,42.4206487,-71.0437126,Broadway,Everett,Middlesex County,MA,02149
565,Wellington MBTA,42.4023682,-71.07573182424781,Revere Beach Pkwy,Medford,Middlesex County,MA,02155
113,Andrew T Stop - Dorchester Ave at Dexter St,42.33073332585453,-71.05699850837482,Humboldt Pl,South Boston,Suffolk County,MA,02127
566,Main Street/Albany Street/Technology Square,42.3629016,-71.0915669,Technology Sq,Cambridge,Middlesex County,MA,02139
514,Gilman Square T at Medford St,42.3867355,-71.0946444,Medford St,Somerville,Middlesex County,MA,02143
97,Harvard University River Houses at DeWolfe St / Cowperthwaite St,42.369239074859216,-71.11687034368515,Dewolfe St,Cambridge,Middlesex County,MA,02138
454,Boylston St at Dartmouth St,42.35019319808638,-71.07744187116623,Boylston St,Boston,Suffolk County,MA,02116
567,Brighton Ave at Linden St,42.3528376,-71.1296752,Brighton Ave,Allston,Suffolk County,MA,02134
568,Shawmut Ave at Lenox St,42.33584612997077,-71.08038157224655,Shawmut Ave,Boston,Suffolk County,MA,02118
569,Hood Park,42.38004534693313,-71.0730457305908,Hood Park Dr,Charlestown,Suffolk County,MA,02129
570,Salem State University - North Campus,42.503332,-70.891444,Meier Dr,Salem,Essex County,MA,01970
572,Essex St at Dalton Parkway,42.516223,-70.905535,Essex St,Salem,Essex County,MA,01970
571,Forest River Park,42.506395,-70.88693,West Ave,Salem,Essex County,MA,01970
191,Tappan St at Brookline Hills MBTA,42.331370168043215,-71.1268836054569,Brington Rd,Brookline,Norfolk County,MA,02445
573,Salem MBTA - Lower Level,42.523994,-70.89684,Federal St,Salem,Essex County,MA,01970
575,Goodhue St at Grove St,42.520897,-70.910528,Goodhue St,Salem,Essex County,MA,01970
576,Main St at Brooks Park,42.411709,-71.110444,Main St,Medford,Middlesex County,MA,02155
577,Medford Sq - Riverside Ave at River St,42.417724,-71.108102,Riverside Ave,Medford,Middlesex County,MA,02155
578,Tufts Sq - Main St at Medford St,42.401697,-71.106128,Main St,Medford,Middlesex County,MA,02155
574,Community Life Center,42.520136,-70.906271,Federal St,Salem,Essex County,MA,01970
582,Gore Street at Lambert Street,42.373079797934935,-71.08634233665725,Gore St,Cambridge,Middlesex County,MA,02141
583,Broad Canal Way at Third Street,42.36304549626695,-71.08287078916874,Broad Canal Way,Cambridge,Middlesex County,MA,02142
114,Teele Square,42.40087950159558,-71.12590793383788,Cameron Ave,Somerville,Middlesex County,MA,02144
584,Malden Center T Station,42.426541,-71.073179,Exchange St,Malden,Middlesex County,MA,02148
585,Northern Strand at Main St,42.42386,-71.067793,Main St,Malden,Middlesex County,MA,02148
586,Gramsdorf Playground,42.408156,-71.0429,Nichols St,Everett,Middlesex County,MA,02149
587,Malden High School,42.426537658440544,-71.06393694877625,Holden St,Malden,Middlesex County,MA,02148
214,Airport T Stop - Bremen St at Brooks St,42.37410287664702,-71.03276431560516,Marion St,East Boston,Suffolk County,MA,02128
389,Everett Square (Broadway at Chelsea St),42.40743489432222,-71.05533242225647,Broadway,Everett,Middlesex County,MA,02149
589,North St at Liberty Hill Ave,42.52989964975891,-70.90614259243011,North St,Salem,Essex County,MA,01970
61,Boylston St at Fairfield St,42.348803822833936,-71.08236908912659,Boylston St,Boston,Suffolk County,MA,02116
499,Conway Park @ Bleachery Ct (Temp Winter Station),42.3834575023727,-71.10771059989929,Somerville Ave,Somerville,Middlesex County,MA,02143
591,515 Somerville Ave (Temp. Winter Location),42.38322726839113,-71.10606908798218,Somerville Ave,Somerville,Middlesex County,MA,02143
590,John Ahern Field at Kennedy-Longfellow School,42.36903566594827,-71.08630959910442,Charles St,Cambridge,Middlesex County,MA,02141
42,Boylston St at Charles St (Temp Winter Location),42.35258524849636,-71.06770277023315,Boylston St,Boston,Suffolk County,MA,02116
164,Warehouse Lab PBSC,42.38645499610106,-71.07541964272968,Dorrance St,Charlestown,Suffolk County,MA,02129
438,Mobile Temporary Station 1,42.35147849233603,-71.044162200742,Northern Ave,Boston,Suffolk County,MA,02210
